{
  "type": "FeatureCollection",
  "features": [
    {
      "type": "Feature",
      "properties": {
        "name": "Selected field working area",
        "analysis_crs": "EPSG:32637",
        "source": "map_point_buffer",
        "buffer_meters": 500
      },
      "geometry": {
        "coordinates": [
          [
            [
              37.6647611319035,
              51.486065965703524
            ],
            [
              37.66476218585121,
              51.485955636716014
            ],
            [
              37.6647589026849,
              51.48584532480704
            ],
            [
              37.66475128441362,
              51.48573509642427
            ],
            [
              37.66473933565765,
              51.48562501796455
            ],
            [
              37.66472306364563,
              51.48551515573392
            ],
            [
              37.664702478210145,
              51.48540557590775
            ],
            [
              37.66467759178172,
              51.48529634449075
            ],
            [
              37.66464841938126,
              51.48518752727741
            ],
            [
              37.664614978610935,
              51.48507918981214
            ],
            [
              37.664577289643496,
              51.48497139735002
            ],
            [
              37.66453537521005,
              51.48486421481732
            ],
            [
              37.664489260586336,
              51.48475770677252
            ],
            [
              37.66443897357736,
              51.48465193736738
            ],
            [
              37.66438454450066,
              51.48454697030831
            ],
            [
              37.66432600616792,
              51.48444286881804
            ],
            [
              37.66426339386518,
              51.484339695597505
            ],
            [
              37.66419674533149,
              51.484237512788134
            ],
            [
              37.664126100736155,
              51.484136381934356
            ],
            [
              37.66405150265446,
              51.48403636394669
            ],
            [
              37.66397299604199,
              51.483937519064895
            ],
            [
              37.663890628207476,
              51.48383990682187
            ],
            [
              37.663804448784276,
              51.48374358600764
            ],
            [
              37.66371450970042,
              51.48364861463415
            ],
            [
              37.66362086514729,
              51.48355504990015
            ],
            [
              37.663523571546946,
              51.483462948156905
            ],
            [
              37.663422687518114,
              51.48337236487422
            ],
            [
              37.66331827384083,
              51.48328335460705
            ],
            [
              37.663210393419796,
              51.48319597096262
            ],
            [
              37.66309911124649,
              51.48311026656825
            ],
            [
              37.66298449435998,
              51.48302629303956
            ],
            [
              37.662866611806535,
              51.48294410094953
            ],
            [
              37.662745534598,
              51.48286373979796
            ],
            [
              37.66262133566903,
              51.48278525798169
            ],
            [
              37.66249408983316,
              51.482708702765514
            ],
            [
              37.66236387373772,
              51.48263412025373
            ],
            [
              37.66223076581767,
              51.482561555362295
            ],
            [
              37.66209484624839,
              51.48249105179198
            ],
            [
              37.661956196897314,
              51.48242265200185
            ],
            [
              37.66181490127475,
              51.482356397183906
            ],
            [
              37.661671044483484,
              51.48229232723814
            ],
            [
              37.66152471316758,
              51.48223048074863
            ],
            [
              37.66137599546023,
              51.48217089496029
            ],
            [
              37.66122498093069,
              51.48211360575644
            ],
            [
              37.661071760530305,
              51.482058647637174
            ],
            [
              37.66091642653782,
              51.48200605369873
            ],
            [
              37.6607590725038,
              51.481955855613464
            ],
            [
              37.660599793194336,
              51.481908083610776
            ],
            [
              37.66043868453399,
              51.481862766459045
            ],
            [
              37.66027584354808,
              51.48181993144816
            ],
            [
              37.66011136830424,
              51.48177960437323
            ],
            [
              37.659945357853466,
              51.48174180951898
            ],
            [
              37.65977791217045,
              51.48170656964519
            ],
            [
              37.65960913209345,
              51.481673905973004
            ],
            [
              37.6594391192636,
              51.48164383817205
            ],
            [
              37.65926797606373,
              51.4816163843488
            ],
            [
              37.65909580555677,
              51.4815915610355
            ],
            [
              37.658922711423756,
              51.481569383180336
            ],
            [
              37.658748797901396,
              51.48154986413837
            ],
            [
              37.65857416971942,
              51.48153301566355
            ],
            [
              37.65839893203748,
              51.48151884790158
            ],
            [
              37.658223190381946,
              51.48150736938395
            ],
            [
              37.658047050582404,
              51.48149858702262
            ],
            [
              37.657870618707925,
              51.48149250610599
            ],
            [
              37.65769400100333,
              51.48148913029568
            ],
            [
              37.65751730382521,
              51.48148846162434
            ],
            [
              37.65734063357795,
              51.481490500494395
            ],
            [
              37.65716409664974,
              51.48149524567784
            ],
            [
              37.65698779934849,
              51.481502694316966
            ],
            [
              37.65681184783797,
              51.48151284192607
            ],
            [
              37.65663634807387,
              51.48152568239417
            ],
            [
              37.656461405740046,
              51.481541207988684
            ],
            [
              37.656287126184985,
              51.48155940936006
            ],
            [
              37.65611361435837,
              51.4815802755474
            ],
            [
              37.65594097474795,
              51.48160379398511
            ],
            [
              37.6557693113167,
              51.48162995051043
            ],
            [
              37.655598727440214,
              51.481658729371865
            ],
            [
              37.65542932584453,
              51.481690113238855
            ],
            [
              37.65526120854433,
              51.48172408321202
            ],
            [
              37.65509447678155,
              51.48176061883465
            ],
            [
              37.65492923096442,
              51.48179969810494
            ],
            [
              37.65476557060709,
              51.481841297489254
            ],
            [
              37.65460359426971,
              51.48188539193633
            ],
            [
              37.65444339949915,
              51.481931954892275
            ],
            [
              37.65428508277026,
              51.48198095831662
            ],
            [
              37.65412873942781,
              51.4820323726991
            ],
            [
              37.65397446362913,
              51.48208616707754
            ],
            [
              37.65382234828742,
              51.48214230905636
            ],
            [
              37.653672485015804,
              51.482200764826146
            ],
            [
              37.653524964072226,
              51.48226149918394
            ],
            [
              37.653379874305074,
              51.48232447555454
            ],
            [
              37.65323730309972,
              51.482389656012316
            ],
            [
              37.65309733632591,
              51.48245700130424
            ],
            [
              37.65296005828602,
              51.482526470873324
            ],
            [
              37.65282555166435,
              51.4825980228832
            ],
            [
              37.65269389747732,
              51.48267161424319
            ],
            [
              37.65256517502466,
              51.482747200634215
            ],
            [
              37.65243946184167,
              51.482824736535555
            ],
            [
              37.652316833652506,
              51.48290417525224
            ],
            [
              37.6521973643246,
              51.482985468943056
            ],
            [
              37.65208112582415,
              51.48306856864942
            ],
            [
              37.65196818817271,
              51.483153424324875
            ],
            [
              37.6518586194051,
              51.483239984865115
            ],
            [
              37.651752485528334,
              51.48332819813884
            ],
            [
              37.651649850481895,
              51.48341801101906
            ],
            [
              37.65155077609915,
              51.48350936941514
            ],
            [
              37.651455322070106,
              51.48360221830531
            ],
            [
              37.651363545905454,
              51.48369650176979
            ],
            [
              37.65127550290185,
              51.483792163024496
            ],
            [
              37.651191246108596,
              51.48388914445521
            ],
            [
              37.651110826295636,
              51.48398738765217
            ],
            [
              37.651034291922954,
              51.48408683344541
            ],
            [
              37.65096168911132,
              51.48418742194021
            ],
            [
              37.650893061614475,
              51.48428909255329
            ],
            [
              37.650828450792716,
              51.484391784049166
            ],
            [
              37.65076789558794,
              51.4844954345771
            ],
            [
              37.65071143250011,
              51.48459998170838
            ],
            [
              37.65065909556525,
              51.48470536247375
            ],
            [
              37.65061091633485,
              51.484811513401475
            ],
            [
              37.650566923856815,
              51.48491837055551
            ],
            [
              37.650527144657886,
              51.48502586957401
            ],
            [
              37.65049160272763,
              51.48513394570803
            ],
            [
              37.65046031950387,
              51.48524253386061
            ],
            [
              37.65043331385977,
              51.48535156862589
            ],
            [
              37.65041060209233,
              51.485460984328604
            ],
            [
              37.65039219791254,
              51.48557071506344
            ],
            [
              37.65037811243702,
              51.485680694735045
            ],
            [
              37.65036835418129,
              51.485790857097506
            ],
            [
              37.65036292905451,
              51.48590113579442
            ],
            [
              37.6503618403559,
              51.48601146439889
            ],
            [
              37.650365088772645,
              51.486121776453395
            ],
            [
              37.650372672379405,
              51.48623200550998
            ],
            [
              37.65038458663942,
              51.48634208517014
            ],
            [
              37.65040082440715,
              51.486451949124984
            ],
            [
              37.6504213759325,
              51.48656153119497
            ],
            [
              37.650446228866656,
              51.48667076536996
            ],
            [
              37.650475368269376,
              51.48677958584885
            ],
            [
              37.650508776618004,
              51.486887927079344
            ],
            [
              37.65054643381789,
              51.48699572379731
            ],
            [
              37.65058831721445,
              51.487102911066216
            ],
            [
              37.65063440160674,
              51.48720942431613
            ],
            [
              37.65068465926256,
              51.487315199382834
            ],
            [
              37.65073905993509,
              51.48742017254622
            ],
            [
              37.65079757088109,
              51.48752428056887
            ],
            [
              37.65086015688048,
              51.487627460734096
            ],
            [
              37.650926780257585,
              51.48772965088381
            ],
            [
              37.6509974009037,
              51.48783078945577
            ],
            [
              37.65107197630123,
              51.48793081552098
            ],
            [
              37.65115046154926,
              51.488029668820154
            ],
            [
              37.65123280939051,
              51.48812728980017
            ],
            [
              37.651318970239785,
              51.488223619649894
            ],
            [
              37.651408892213816,
              51.48831860033566
            ],
            [
              37.65150252116243,
              51.48841217463627
            ],
            [
              37.651599800701156,
              51.48850428617738
            ],
            [
              37.65170067224515,
              51.48859487946562
            ],
            [
              37.651805075044464,
              51.48868389992195
            ],
            [
              37.65191294622057,
              51.48877129391456
            ],
            [
              37.65202422080429,
              51.48885700879119
            ],
            [
              37.65213883177483,
              51.48894099291098
            ],
            [
              37.65225671010019,
              51.489023195675465
            ],
            [
              37.652377784778686,
              51.489103567559106
            ],
            [
              37.652501982881766,
              51.4891820601392
            ],
            [
              37.652629229597885,
              51.48925862612504
            ],
            [
              37.6527594482776,
              51.48933321938638
            ],
            [
              37.65289256047971,
              51.48940579498132
            ],
            [
              37.65302848601854,
              51.489476309183395
            ],
            [
              37.653167143012254,
              51.48954471950783
            ],
            [
              37.65330844793215,
              51.48961098473734
            ],
            [
              37.653452315653034,
              51.48967506494677
            ],
            [
              37.6535986595045,
              51.489736921527346
            ],
            [
              37.65374739132318,
              51.48979651720985
            ],
            [
              37.653898421505815,
              51.489853816087155
            ],
            [
              37.65405165906334,
              51.48990878363579
            ],
            [
              37.654207011675695,
              51.489961386736844
            ],
            [
              37.65436438574744,
              51.4900115936959
            ],
            [
              37.65452368646422,
              51.49005937426215
            ],
            [
              37.6546848178499,
              51.490104699646615
            ],
            [
              37.654847682824425,
              51.49014754253955
            ],
            [
              37.65501218326234,
              51.490187877126864
            ],
            [
              37.65517822005199,
              51.49022567910571
            ],
            [
              37.655345693155205,
              51.49026092569918
            ],
            [
              37.655514501667675,
              51.49029359566997
            ],
            [
              37.65568454387978,
              51.49032366933319
            ],
            [
              37.65585571733789,
              51.49035112856831
            ],
            [
              37.65602791890617,
              51.490375956830036
            ],
            [
              37.656201044828784,
              51.49039813915825
            ],
            [
              37.65637499079241,
              51.490417662187134
            ],
            [
              37.65654965198919,
              51.490434514153094
            ],
            [
              37.6567249231799,
              51.49044868490204
            ],
            [
              37.65690069875748,
              51.490460165895314
            ],
            [
              37.65707687281062,
              51.49046895021494
            ],
            [
              37.65725333918771,
              51.490475032567836
            ],
            [
              37.65742999156082,
              51.49047840928892
            ],
            [
              37.65760672348984,
              51.490479078343334
            ],
            [
              37.65778342848666,
              51.49047703932772
            ],
            [
              37.6579600000794,
              51.49047229347046
            ],
            [
              37.6581363318766,
              51.490464843630896
            ],
            [
              37.658312317631406,
              51.49045469429758
            ],
            [
              37.658487851305644,
              51.49044185158567
            ],
            [
              37.658662827133746,
              51.49042632323316
            ],
            [
              37.65883713968655,
              51.49040811859624
            ],
            [
              37.65901068393486,
              51.49038724864368
            ],
            [
              37.65918335531282,
              51.490363725950125
            ],
            [
              37.659355049780956,
              51.49033756468863
            ],
            [
              37.65952566388888,
              51.49030878062203
            ],
            [
              37.659695094837716,
              51.49027739109349
            ],
            [
              37.65986324054207,
              51.49024341501601
            ],
            [
              37.6600299996916,
              51.490206872861
            ],
            [
              37.660195271812086,
              51.490167786646005
            ],
            [
              37.66035895732601,
              51.49012617992139
            ],
            [
              37.660520957612604,
              51.4900820777561
            ],
            [
              37.66068117506732,
              51.49003550672261
            ],
            [
              37.66083951316066,
              51.48998649488089
            ],
            [
              37.66099587649637,
              51.48993507176143
            ],
            [
              37.66115017086897,
              51.48988126834748
            ],
            [
              37.66130230332051,
              51.4898251170564
            ],
            [
              37.66145218219665,
              51.48976665172002
            ],
            [
              37.66159971720184,
              51.48970590756434
            ],
            [
              37.661744819453816,
              51.48964292118817
            ],
            [
              37.66188740153715,
              51.48957773054125
            ],
            [
              37.66202737755589,
              51.489510374901165
            ],
            [
              37.66216466318536,
              51.48944089484978
            ],
            [
              37.662299175722985,
              51.48936933224881
            ],
            [
              37.662430834138114,
              51.48929573021437
            ],
            [
              37.66255955912081,
              51.48922013309129
            ],
            [
              37.66268527312969,
              51.489142586426105
            ],
            [
              37.6628079004386,
              51.48906313693976
            ],
            [
              37.66292736718223,
              51.48898183249941
            ],
            [
              37.663043601400624,
              51.488898722089516
            ],
            [
              37.663156533082514,
              51.48881385578231
            ],
            [
              37.66326609420748,
              51.488727284707736
            ],
            [
              37.66337221878691,
              51.48863906102248
            ],
            [
              37.66347484290374,
              51.48854923787859
            ],
            [
              37.66357390475092,
              51.48845786939144
            ],
            [
              37.66366934466863,
              51.48836501060709
            ],
            [
              37.663761105180185,
              51.48827071746919
            ],
            [
              37.663849131026645,
              51.48817504678511
            ],
            [
              37.66393336920004,
              51.48807805619178
            ],
            [
              37.664013768975266,
              51.487979804121025
            ],
            [
              37.66409028194064,
              51.48788034976423
            ],
            [
              37.66416286202693,
              51.4877797530367
            ],
            [
              37.664231465535174,
              51.48767807454159
            ],
            [
              37.66429605116285,
              51.48757537553333
            ],
            [
              37.66435658002876,
              51.48747171788076
            ],
            [
              37.66441301569638,
              51.4873671640298
            ],
            [
              37.66446532419576,
              51.487261776965866
            ],
            [
              37.664513474043915,
              51.48715562017584
            ],
            [
              37.66455743626372,
              51.48704875760992
            ],
            [
              37.664597184401316,
              51.48694125364301
            ],
            [
              37.664632694541986,
              51.48683317303595
            ],
            [
              37.66466394532447,
              51.48672458089647
            ],
            [
              37.66469091795378,
              51.48661554264004
            ],
            [
              37.66471359621244,
              51.486506123950335
            ],
            [
              37.664731966470185,
              51.486396390739856
            ],
            [
              37.66474601769212,
              51.486286409109944
            ],
            [
              37.664755741445234,
              51.486176245311235
            ],
            [
              37.6647611319035,
              51.486065965703524
            ]
          ]
        ],
        "type": "Polygon"
      }
    }
  ]
}
